AL MUNTHER              
1 63240U 25052AG  26068.64540749  .00017933  00000+0  65015-3 0  9992
2 63240  97.4001 323.9152 0008027 130.7043 229.4895 15.28381521 54798
STARLINK-33957          
1 63897U 25095H   26067.37739726  .00051228  00000+0  18584-2 0  9994
2 63897  43.0035 183.9355 0001539 241.4171 118.6526 15.27577450 47577
